NORAD_CAT_ID,OBJECT_NAME,OBJECT_TYPE,EPOCH,MEAN_MOTION,ECCENTRICITY,INCLINATION,RA_OF_ASC_NODE,ARG_OF_PERICENTER,MEAN_ANOMALY,BSTAR,MEAN_MOTION_DOT,MEAN_MOTION_DDOT,TLE_LINE0,TLE_LINE1,TLE_LINE2,SEMIMAJOR_AXIS,PERIOD,APOGEE,PERIGEE,DECAYED
51780.0,STARLINK-3617,PAYLOAD,2023-11-28 14:25:59,15.08843556,0.0001376,53.2153,114.4975,80.2976,279.8172,7.2382e-05,8.64e-06,0.0,0 STARLINK-3617,1 51780U 22017N   23332.60137977  .00000864  00000-0  72382-4 0  9990,2 51780  53.2153 114.4975 0001376  80.2976 279.8172 15.08843556 96806,6917.87,95.437,540.686,538.783,0.0
51780.0,STARLINK-3617,PAYLOAD,2023-11-28 19:12:08,15.08852565,0.0001332,53.2152,113.6048,87.2704,272.844,0.00021952,3.209e-05,0.0,0 STARLINK-3617,1 51780U 22017N   23332.80009483  .00003209  00000-0  21952-3 0  9994,2 51780  53.2152 113.6048 0001332  87.2704 272.8440 15.08852565 98527,6917.842,95.437,540.628,538.786,0.0
51780.0,STARLINK-3617,PAYLOAD,2023-11-29 12:41:23,15.08844552,0.0001888,53.2154,110.3318,120.2452,239.8727,0.00014659,2.046e-05,0.0,0 STARLINK-3617,1 51780U 22017N   23333.52873853  .00002046  00000-0  14659-3 0  9998,2 51780  53.2154 110.3318 0001888 120.2452 239.8727 15.08844552 98637,6917.866,95.437,541.038,538.425,0.0
51780.0,STARLINK-3617,PAYLOAD,2023-11-29 14:16:46,15.08843211,0.0001871,53.2167,110.0363,122.9376,237.1796,0.00016063,2.269e-05,0.0,0 STARLINK-3617,1 51780U 22017N   23333.59497815  .00002269  00000-0  16063-3 0  9993,2 51780  53.2167 110.0363 0001871 122.9376 237.1796 15.08843211 96955,6917.871,95.437,541.03,538.441,0.0
51780.0,STARLINK-3617,PAYLOAD,2023-11-30 12:32:10,15.08832461,0.0001449,53.2172,105.8773,101.6708,258.4447,0.00025198,3.724e-05,0.0,0 STARLINK-3617,1 51780U 22017N   23334.52234760  .00003724  00000-0  25198-3 0  9991,2 51780  53.2172 105.8773 0001449 101.6708 258.4447 15.08832461 98789,6917.903,95.438,540.771,538.766,0.0
51780.0,STARLINK-3617,PAYLOAD,2023-12-01 15:33:43,15.0884735,0.0001577,53.2173,100.8202,102.2966,257.8203,0.00017927,2.567e-05,0.0,0 STARLINK-3617,1 51780U 22017N   23335.64842100  .00002567  00000-0  17927-3 0  9993,2 51780  53.2173 100.8202 0001577 102.2966 257.8203 15.08847350 98952,6917.858,95.437,540.814,538.632,0.0
51780.0,STARLINK-3617,PAYLOAD,2023-12-02 12:13:43,15.08863296,0.0001638,53.2175,96.9566,110.2794,249.8375,0.00014784,2.067e-05,0.0,0 STARLINK-3617,1 51780U 22017N   23336.50952834  .00002067  00000-0  14784-3 0  9998,2 51780  53.2175  96.9566 0001638 110.2794 249.8375 15.08863296 99081,6917.809,95.436,540.807,538.541,0.0
51780.0,STARLINK-3617,PAYLOAD,2023-12-02 13:49:06,15.08856251,0.0001527,53.217,96.657,104.9281,255.188,0.00024581,3.628e-05,0.0,0 STARLINK-3617,1 51780U 22017N   23336.57577227  .00003628  00000-0  24581-3 0  9994,2 51780  53.2170  96.6570 0001527 104.9281 255.1880 15.08856251 97404,6917.831,95.437,540.752,538.639,0.0
51780.0,STARLINK-3617,PAYLOAD,2023-12-03 12:04:33,15.08804967,0.0001283,53.217,92.494,87.4806,272.6333,-0.00057862,-9.476e-05,0.0,0 STARLINK-3617,1 51780U 22017N   23337.50315988 -.00009476  00000-0 -57862-3 0  9999,2 51780  53.2170  92.4940 0001283  87.4806 272.6333 15.08804967 99233,6917.987,95.44,540.74,538.965,0.0
51780.0,STARLINK-3617,PAYLOAD,2023-12-03 13:39:56,15.08808231,0.000133,53.2168,92.1943,89.1077,271.0067,-0.00050602,-8.325e-05,0.0,0 STARLINK-3617,1 51780U 22017N   23337.56939971 -.00008325  00000-0 -50602-3 0  9996,2 51780  53.2168  92.1943 0001330  89.1077 271.0067 15.08808231 97550,6917.977,95.44,540.763,538.922,0.0
51780.0,STARLINK-3617,PAYLOAD,2023-12-04 11:55:19,15.08844186,0.0001246,53.2176,88.0342,68.5922,291.5203,-4.7367e-05,-1.042e-05,0.0,0 STARLINK-3617,1 51780U 22017N   23338.49675743 -.00001042  00000-0 -47367-4 0  9997,2 51780  53.2176  88.0342 0001246  68.5922 291.5203 15.08844186 99383,6917.868,95.437,540.595,538.871,0.0
51780.0,STARLINK-3617,PAYLOAD,2023-12-04 13:30:43,15.08842531,0.0001431,53.2176,87.7366,79.2893,280.826,-2.9569e-05,-7.59e-06,0.0,0 STARLINK-3617,1 51780U 22017N   23338.56299790 -.00000759  00000-0 -29569-4 0  9997,2 51780  53.2176  87.7366 0001431  79.2893 280.8260 15.08842531 97707,6917.873,95.437,540.728,538.748,0.0
51780.0,STARLINK-3617,PAYLOAD,2023-12-04 16:41:29,15.08845689,0.000134,53.2169,87.1413,67.6462,292.4672,-1.3224e-05,-4.98e-06,0.0,0 STARLINK-3617,1 51780U 22017N   23338.69547589 -.00000498  00000-0 -13224-4 0  9994,2 51780  53.2169  87.1413 0001340  67.6462 292.4672 15.08845689 97723,6917.863,95.437,540.655,538.801,0.0
51780.0,STARLINK-3617,PAYLOAD,2023-12-05 13:21:29,15.08837004,0.0001868,53.2188,83.2787,55.0733,305.0434,0.00056684,8.744e-05,0.0,0 STARLINK-3617,1 51780U 22017N   23339.55659485  .00008744  00000-0  56684-3 0  9995,2 51780  53.2188  83.2787 0001868  55.0733 305.0434 15.08837004 97855,6917.89,95.438,541.047,538.462,0.0
51780.0,STARLINK-3617,PAYLOAD,2023-12-05 16:32:15,15.08846006,0.0001497,53.2172,82.6807,66.8659,293.249,0.00061077,9.447e-05,0.0,0 STARLINK-3617,1 51780U 22017N   23339.68906993  .00009447  00000-0  61077-3 0  9991,2 51780  53.2172  82.6807 0001497  66.8659 293.2490 15.08846006 99561,6917.862,95.437,540.763,538.691,0.0
51780.0,STARLINK-3617,PAYLOAD,2023-12-06 11:36:53,15.08847211,0.0001281,53.2163,79.1125,65.6402,294.4723,2.0865e-05,4.4e-07,0.0,0 STARLINK-3617,1 51780U 22017N   23340.48395589  .00000044  00000-0  20865-4 0  9999,2 51780  53.2163  79.1125 0001281  65.6402 294.4723 15.08847211 99683,6917.858,95.437,540.61,538.837,0.0
51780.0,STARLINK-3617,PAYLOAD,2023-12-06 13:12:16,15.08848302,0.0001396,53.2163,78.8151,63.5455,296.568,4.6004e-05,4.44e-06,0.0,0 STARLINK-3617,1 51780U 22017N   23340.55019547  .00000444  00000-0  46004-4 0  9991,2 51780  53.2163  78.8151 0001396  63.5455 296.5680 15.08848302 98002,6917.855,95.437,540.686,538.754,0.0
51780.0,STARLINK-3617,PAYLOAD,2023-12-07 11:27:41,15.0884032,0.0001359,53.2177,74.6504,74.6446,285.4696,-0.00023704,-4.058e-05,0.0,0 STARLINK-3617,1 51780U 22017N   23341.47756562 -.00004058  00000-0 -23704-3 0  9996,2 51780  53.2177  74.6504 0001359  74.6446 285.4696 15.08840320 99833,6917.879,95.438,540.685,538.804,0.0
51780.0,STARLINK-3617,PAYLOAD,2023-12-07 13:03:04,15.08840315,0.0001322,53.2177,74.3531,87.0464,273.068,-0.00024861,-4.242e-05,0.0,0 STARLINK-3617,1 51780U 22017N   23341.54380534 -.00004242  00000-0 -24861-3 0  9996,2 51780  53.2177  74.3531 0001322  87.0464 273.0680 15.08840315 98152,6917.879,95.438,540.659,538.83,0.0
51780.0,STARLINK-3617,PAYLOAD,2023-12-08 11:18:28,15.08838075,0.0001378,53.2177,70.1915,75.5691,284.5454,7.2326e-05,8.63e-06,0.0,0 STARLINK-3617,1 51780U 22017N   23342.47116123  .00000863  00000-0  72326-4 0  9993,2 51780  53.2177  70.1915 0001378  75.5691 284.5454 15.08838075 99985,6917.886,95.438,540.705,538.798,0.0
51780.0,STARLINK-3617,PAYLOAD,2023-12-08 14:29:14,15.08839802,0.000151,53.2169,69.599,66.4601,293.655,0.00011691,1.573e-05,0.0,0 STARLINK-3617,1 51780U 22017N   23342.60363996  .00001573  00000-0  11691-3 0  9996,2 51780  53.2169  69.5990 0001510  66.4601 293.6550 15.08839802 98312,6917.881,95.438,540.791,538.701,0.0
51780.0,STARLINK-3617,PAYLOAD,2023-12-08 16:04:37,15.08841102,0.0001484,53.217,69.301,69.4237,290.6915,0.00012193,1.653e-05,0.0,0 STARLINK-3617,1 51780U 22017N   23342.66987889  .00001653  00000-0  12193-3 0  9992,2 51780  53.2170  69.3010 0001484  69.4237 290.6915 15.08841102 98322,6917.877,95.437,540.769,538.715,0.0
51780.0,STARLINK-3617,PAYLOAD,2023-12-09 11:09:15,15.0883887,0.0001579,53.2174,65.7323,69.4959,290.6203,0.0002661,3.949e-05,0.0,0 STARLINK-3617,1 51780U 22017N   23343.46475986  .00003949  00000-0  26610-3 0  9990,2 51780  53.2174  65.7323 0001579  69.4959 290.6203 15.08838870 98440,6917.884,95.438,540.841,538.657,0.0
51780.0,STARLINK-3617,PAYLOAD,2023-12-10 04:38:30,15.0882121,0.0001783,53.2164,62.4617,68.3528,291.7654,0.00041,6.24e-05,0.0,0 STARLINK-3617,1 51780U 22017N   23344.19341371  .00006240  00000-0  41000-3 0  9998,2 51780  53.2164  62.4617 0001783  68.3528 291.7654 15.08821210100240,6917.938,95.439,541.036,538.569,0.0
51780.0,STARLINK-3617,PAYLOAD,2023-12-11 10:50:49,15.08841445,0.0001894,53.2174,56.8138,53.3304,306.7862,4.4186e-06,-2.18e-06,0.0,0 STARLINK-3617,1 51780U 22017N   23345.45196462 -.00000218  00000-0  44186-5 0  9997,2 51780  53.2174  56.8138 0001894  53.3304 306.7862 15.08841445100436,6917.876,95.437,541.051,538.431,0.0
51780.0,STARLINK-3617,PAYLOAD,2023-12-11 12:26:12,15.08843833,0.0001848,53.2179,56.5156,59.7745,300.343,1.9373e-05,2e-07,0.0,0 STARLINK-3617,1 51780U 22017N   23345.51820243  .00000020  00000-0  19373-4 0  9994,2 51780  53.2179  56.5156 0001848  59.7745 300.3430 15.08843833 98751,6917.869,95.437,541.012,538.455,0.0
51780.0,STARLINK-3617,PAYLOAD,2023-12-12 12:16:59,15.08840938,0.0001808,53.2187,52.0551,65.5634,294.5547,8.3948e-05,1.048e-05,0.0,0 STARLINK-3617,1 51780U 22017N   23346.51180211  .00001048  00000-0  83948-4 0  9999,2 51780  53.2187  52.0551 0001808  65.5634 294.5547 15.08840938 98901,6917.878,95.437,540.993,538.492,0.0
51780.0,STARLINK-3617,PAYLOAD,2023-12-13 10:32:23,15.08843427,0.0001908,53.2189,47.8906,64.3869,295.7321,6.6052e-05,7.63e-06,0.0,0 STARLINK-3617,1 51780U 22017N   23347.43916066  .00000763  00000-0  66052-4 0  9996,2 51780  53.2189  47.8906 0001908  64.3869 295.7321 15.08843427 99042,6917.87,95.437,541.055,538.415,0.0
51780.0,STARLINK-3617,PAYLOAD,2023-12-14 10:23:10,15.08844505,0.0001536,53.2177,43.4314,82.296,277.8207,5.6722e-05,6.15e-06,0.0,0 STARLINK-3617,1 51780U 22017N   23348.43275759  .00000615  00000-0  56722-4 0  9993,2 51780  53.2177  43.4314 0001536  82.2960 277.8207 15.08844505100889,6917.867,95.437,540.794,538.669,0.0
51780.0,STARLINK-3617,PAYLOAD,2023-12-15 10:13:57,15.08837912,0.0001654,53.2186,38.9673,106.8188,253.2985,1.1927e-05,-9.8e-07,0.0,0 STARLINK-3617,1 51780U 22017N   23349.42636084 -.00000098  00000-0  11927-4 0  9999,2 51780  53.2186  38.9673 0001654 106.8188 253.2985 15.08837912101035,6917.887,95.438,540.896,538.608,0.0
